{
  "norad_id": 48987,
  "name": "ONEWEB-0269",
  "history": [
    {
      "epoch": "2026-04-14T20:39:18.489024Z",
      "apogee_km": 1199.079178851547,
      "perigee_km": 1196.4382216104468,
      "latitude_deg": 5.474630509557438e-05,
      "longitude_deg": 88.5121757465823,
      "height_km": 1201.0500459810578,
      "semi_major_axis_km": 7575.895700230996,
      "eccentricity": 0.0001743,
      "inclination_deg": 87.9041,
      "raan_deg": 241.3702,
      "arg_perigee_deg": 107.5022,
      "mean_anomaly_deg": 252.63,
      "mean_motion_rev_day": 13.16593727
    },
    {
      "epoch": "2026-04-15T20:21:58.372128Z",
      "apogee_km": 1199.106559506231,
      "perigee_km": 1196.4110557778722,
      "latitude_deg": 3.202622050623569e-06,
      "longitude_deg": 91.67601678099993,
      "height_km": 1201.0671564998863,
      "semi_major_axis_km": 7575.895807642051,
      "eccentricity": 0.0001779,
      "inclination_deg": 87.9051,
      "raan_deg": 241.174,
      "arg_perigee_deg": 107.8965,
      "mean_anomaly_deg": 252.236,
      "mean_motion_rev_day": 13.16593699
    },
    {
      "epoch": "2026-04-16T14:36:19.810368Z",
      "apogee_km": 1199.1186945463187,
      "perigee_km": 1196.4004628538805,
      "latitude_deg": -4.7888651691568805e-05,
      "longitude_deg": 177.18632941759427,
      "height_km": 1201.0740379740023,
      "semi_major_axis_km": 7575.8965787001,
      "eccentricity": 0.0001794,
      "inclination_deg": 87.9053,
      "raan_deg": 241.0227,
      "arg_perigee_deg": 108.0131,
      "mean_anomaly_deg": 252.1195,
      "mean_motion_rev_day": 13.16593498
    },
    {
      "epoch": "2026-04-17T21:36:44.284320Z",
      "apogee_km": 1199.2713482704758,
      "perigee_km": 1196.2506862130413,
      "latitude_deg": 2.564895583128813e-05,
      "longitude_deg": 70.55345511722358,
      "height_km": 1201.1114541661238,
      "semi_major_axis_km": 7575.898017241758,
      "eccentricity": 0.00019936,
      "inclination_deg": 87.9057,
      "raan_deg": 240.7652,
      "arg_perigee_deg": 107.5972,
      "mean_anomaly_deg": 252.5377,
      "mean_motion_rev_day": 13.16593123
    },
    {
      "epoch": "2026-04-18T19:29:57.936768Z",
      "apogee_km": 1199.1371337642267,
      "perigee_km": 1196.382537674759,
      "latitude_deg": 1.5264669829914864e-05,
      "longitude_deg": 101.16649733613397,
      "height_km": 1201.084862295261,
      "semi_major_axis_km": 7575.896835719493,
      "eccentricity": 0.0001818,
      "inclination_deg": 87.9058,
      "raan_deg": 240.584,
      "arg_perigee_deg": 108.2313,
      "mean_anomaly_deg": 251.9016,
      "mean_motion_rev_day": 13.16593431
    },
    {
      "epoch": "2026-04-19T19:12:37.792224Z",
      "apogee_km": 1199.4015572976095,
      "perigee_km": 1196.1166487473383,
      "latitude_deg": 5.049340723970843e-05,
      "longitude_deg": 104.33015412716786,
      "height_km": 1201.1121936848701,
      "semi_major_axis_km": 7575.896103022474,
      "eccentricity": 0.0002168,
      "inclination_deg": 87.9057,
      "raan_deg": 240.3875,
      "arg_perigee_deg": 106.2494,
      "mean_anomaly_deg": 253.8876,
      "mean_motion_rev_day": 13.16593622
    },
    {
      "epoch": "2026-04-20T07:58:40.697472Z",
      "apogee_km": 1199.1495710482877,
      "perigee_km": 1196.364975349231,
      "latitude_deg": 3.32769037535113e-06,
      "longitude_deg": -87.81219528735049,
      "height_km": 1201.0877315823323,
      "semi_major_axis_km": 7575.894273198759,
      "eccentricity": 0.00018378,
      "inclination_deg": 87.906,
      "raan_deg": 240.2816,
      "arg_perigee_deg": 108.2645,
      "mean_anomaly_deg": 251.8686,
      "mean_motion_rev_day": 13.16594099
    },
    {
      "epoch": "2026-04-21T20:27:23.541120Z",
      "apogee_km": 1199.165632309424,
      "perigee_km": 1196.3519446135888,
      "latitude_deg": -2.7461800676453477e-05,
      "longitude_deg": 83.208763143512,
      "height_km": 1201.0894100473743,
      "semi_major_axis_km": 7575.895788461506,
      "eccentricity": 0.0001857,
      "inclination_deg": 87.9064,
      "raan_deg": 239.9792,
      "arg_perigee_deg": 108.0773,
      "mean_anomaly_deg": 252.056,
      "mean_motion_rev_day": 13.16593704
    },
    {
      "epoch": "2026-04-22T14:41:44.964672Z",
      "apogee_km": 1199.1901399174903,
      "perigee_km": 1196.3279663886096,
      "latitude_deg": 2.7561110189841256e-05,
      "longitude_deg": 168.71903767988832,
      "height_km": 1201.097860486775,
      "semi_major_axis_km": 7575.89605315305,
      "eccentricity": 0.0001889,
      "inclination_deg": 87.9066,
      "raan_deg": 239.8278,
      "arg_perigee_deg": 108.1077,
      "mean_anomaly_deg": 252.026,
      "mean_motion_rev_day": 13.16593635
    },
    {
      "epoch": "2026-04-23T14:24:24.721632Z",
      "apogee_km": 1199.2047585459168,
      "perigee_km": 1196.3057676125263,
      "latitude_deg": 3.51861182265595e-05,
      "longitude_deg": 171.88290398976298,
      "height_km": 1201.0941150329998,
      "semi_major_axis_km": 7575.892263079221,
      "eccentricity": 0.00019133,
      "inclination_deg": 87.9067,
      "raan_deg": 239.6311,
      "arg_perigee_deg": 107.8736,
      "mean_anomaly_deg": 252.2604,
      "mean_motion_rev_day": 13.16594623
    },
    {
      "epoch": "2026-04-24T19:35:23.066880Z",
      "apogee_km": 1199.2596002752844,
      "perigee_km": 1196.2580303532568,
      "latitude_deg": -5.8184707273724895e-05,
      "longitude_deg": 92.69889591292858,
      "height_km": 1201.1226603918722,
      "semi_major_axis_km": 7575.89581531427,
      "eccentricity": 0.0001981,
      "inclination_deg": 87.907,
      "raan_deg": 239.3887,
      "arg_perigee_deg": 108.2486,
      "mean_anomaly_deg": 251.886,
      "mean_motion_rev_day": 13.16593697
    },
    {
      "epoch": "2026-04-25T19:18:02.860128Z",
      "apogee_km": 1199.2150095465113,
      "perigee_km": 1196.2998053785195,
      "latitude_deg": 6.688931986039378e-06,
      "longitude_deg": 95.8633144867885,
      "height_km": 1201.0963357870962,
      "semi_major_axis_km": 7575.894407462515,
      "eccentricity": 0.0001924,
      "inclination_deg": 87.907,
      "raan_deg": 239.1927,
      "arg_perigee_deg": 107.7746,
      "mean_anomaly_deg": 252.3595,
      "mean_motion_rev_day": 13.16594064
    },
    {
      "epoch": "2026-04-26T20:50:08.779488Z",
      "apogee_km": 1199.224515751508,
      "perigee_km": 1196.289462902163,
      "latitude_deg": 6.884283655453862e-05,
      "longitude_deg": 71.57826895092508,
      "height_km": 1201.09992693192,
      "semi_major_axis_km": 7575.893989326835,
      "eccentricity": 0.00019371,
      "inclination_deg": 87.907,
      "raan_deg": 238.981,
      "arg_perigee_deg": 107.816,
      "mean_anomaly_deg": 252.3183,
      "mean_motion_rev_day": 13.16594173
    },
    {
      "epoch": "2026-04-27T18:43:22.473408Z",
      "apogee_km": 1199.2423270805602,
      "perigee_km": 1196.274091337592,
      "latitude_deg": -5.349528836138944e-05,
      "longitude_deg": 102.19093443229936,
      "height_km": 1201.1097790286233,
      "semi_major_axis_km": 7575.895209209076,
      "eccentricity": 0.0001959,
      "inclination_deg": 87.9071,
      "raan_deg": 238.7996,
      "arg_perigee_deg": 107.9608,
      "mean_anomaly_deg": 252.1736,
      "mean_motion_rev_day": 13.16593855
    },
    {
      "epoch": "2026-04-28T20:15:28.386720Z",
      "apogee_km": 1199.2566522178477,
      "perigee_km": 1196.2596281004007,
      "latitude_deg": 4.689562245986733e-05,
      "longitude_deg": 77.90591586356314,
      "height_km": 1201.1155617145698,
      "semi_major_axis_km": 7575.895140159124,
      "eccentricity": 0.0001978,
      "inclination_deg": 87.9072,
      "raan_deg": 238.5879,
      "arg_perigee_deg": 108.0194,
      "mean_anomaly_deg": 252.1153,
      "mean_motion_rev_day": 13.16593873
    },
    {
      "epoch": "2026-04-29T18:08:41.976096Z",
      "apogee_km": 1199.2493539223906,
      "perigee_km": 1196.2629368444805,
      "latitude_deg": -2.4669062431038797e-05,
      "longitude_deg": 108.51911957286642,
      "height_km": 1201.102129999654,
      "semi_major_axis_km": 7575.893145383435,
      "eccentricity": 0.0001971,
      "inclination_deg": 87.9075,
      "raan_deg": 238.4066,
      "arg_perigee_deg": 107.6239,
      "mean_anomaly_deg": 252.5107,
      "mean_motion_rev_day": 13.16594393
    },
    {
      "epoch": "2026-04-30T14:12:29.445408Z",
      "apogee_km": 1199.2624752574857,
      "perigee_km": 1196.2474217798153,
      "latitude_deg": -6.069147476600517e-05,
      "longitude_deg": 166.58106348102302,
      "height_km": 1201.0990600118896,
      "semi_major_axis_km": 7575.891948518651,
      "eccentricity": 0.00019899,
      "inclination_deg": 87.9076,
      "raan_deg": 238.2403,
      "arg_perigee_deg": 107.3777,
      "mean_anomaly_deg": 252.7571,
      "mean_motion_rev_day": 13.16594705
    },
    {
      "epoch": "2026-05-02T06:20:04.483392Z",
      "apogee_km": 1199.288562283171,
      "perigee_km": 1196.221841119921,
      "latitude_deg": -8.973970403910938e-05,
      "longitude_deg": -77.29546396612766,
      "height_km": 1201.094955568329,
      "semi_major_axis_km": 7575.892201701546,
      "eccentricity": 0.0002024,
      "inclination_deg": 87.9078,
      "raan_deg": 237.9077,
      "arg_perigee_deg": 106.908,
      "mean_anomaly_deg": 253.2272,
      "mean_motion_rev_day": 13.16594639
    },
    {
      "epoch": "2026-05-03T18:48:47.299392Z",
      "apogee_km": 1199.323477011223,
      "perigee_km": 1196.190087342915,
      "latitude_deg": 4.2471899938341625e-06,
      "longitude_deg": 93.72581422540053,
      "height_km": 1201.1009017933163,
      "semi_major_axis_km": 7575.893782177069,
      "eccentricity": 0.0002068,
      "inclination_deg": 87.9081,
      "raan_deg": 237.6055,
      "arg_perigee_deg": 106.7079,
      "mean_anomaly_deg": 253.4279,
      "mean_motion_rev_day": 13.16594227
    }
  ]
}